OBJECT_NAME,OBJECT_ID,EPOCH,MEAN_MOTION,ECCENTRICITY,INCLINATION,RA_OF_ASC_NODE,ARG_OF_PERICENTER,MEAN_ANOMALY,EPHEMERIS_TYPE,CLASSIFICATION_TYPE,NORAD_CAT_ID,ELEMENT_SET_NO,REV_AT_EPOCH,BSTAR,MEAN_MOTION_DOT,MEAN_MOTION_DDOT
IRIDIUM 138,2017-083B,2026-06-08T04:14:35.231424,14.34218066,.0002405,86.3973,325.4777,88.8473,271.2998,0,U,43071,999,44284,.80679E-4,.246E-5,0
IRIDIUM 116,2017-083C,2026-06-08T00:07:59.121696,14.34217636,.0001852,86.3957,325.8411,93.5040,266.6367,0,U,43072,999,44285,.77682E-4,.237E-5,0
IRIDIUM 130,2017-083D,2026-06-08T04:23:43.094688,14.34218276,.0001951,86.3967,326.0415,88.1759,271.9660,0,U,43073,999,44282,.79904E-4,.244E-5,0
IRIDIUM 151,2017-083E,2026-06-08T03:47:11.124960,14.34218048,.0002106,86.3959,325.8351,91.6501,268.4936,0,U,43074,999,44284,.40903E-4,.134E-5,0
IRIDIUM 134,2017-083F,2026-06-07T22:00:07.156800,14.34218074,.0002093,86.3961,325.9440,89.2680,270.8756,0,U,43075,999,44277,.13181E-4,.57E-6,0
IRIDIUM 137,2017-083G,2026-06-07T22:18:23.126112,14.34217348,.0001982,86.3961,326.0310,102.2057,257.9361,0,U,43076,999,44284,.30362E-6,.21E-6,0
IRIDIUM 141,2017-083H,2026-06-07T22:09:15.180768,14.34217279,.0002105,86.3954,325.8651,90.8157,269.3280,0,U,43077,999,44284,-.11689E-4,-.13E-6,0
IRIDIUM 153,2017-083J,2026-06-08T02:01:47.464032,14.34217634,.0002338,86.3955,294.2774,90.6406,269.5057,0,U,43078,999,44397,.26653E-5,.27E-6,0
IRIDIUM 131,2017-083K,2026-06-07T23:31:27.138144,14.34217441,.0002107,86.3957,326.0265,92.0092,268.1345,0,U,43079,999,44278,-.15682E-4,-.24E-6,0
IRIDIUM 144,2018-030A,2026-06-07T21:09:31.379616,14.34217794,.0002003,86.3951,294.2914,92.7323,267.4102,0,U,43249,999,42880,.3582E-4,.12E-5,0
IRIDIUM 149,2018-030B,2026-06-07T21:18:39.439872,14.34217857,.0002254,86.3951,294.2562,92.9338,267.2116,0,U,43250,999,42882,.13558E-4,.58E-6,0
IRIDIUM 157,2018-030C,2026-06-08T02:47:27.443904,14.34217640,.0002197,86.3952,294.2135,93.7834,266.3613,0,U,43251,999,42883,.64324E-5,.38E-6,0
IRIDIUM 140,2018-030D,2026-06-07T22:13:27.402240,14.34217806,.0002148,86.3953,294.3057,92.1839,267.9603,0,U,43252,999,42886,.91071E-5,.45E-6,0
IRIDIUM 145,2018-030E,2026-06-07T21:55:11.316288,14.34217720,.0001856,86.3951,294.2832,96.4966,263.6441,0,U,43253,999,42879,.22298E-4,.82E-6,0
IRIDIUM 146,2018-030F,2026-06-07T21:27:47.386080,14.34217567,.0001976,86.3950,294.3037,95.2646,264.8775,0,U,43254,999,42880,-.7457E-6,.18E-6,0
IRIDIUM 148,2018-030G,2026-06-08T01:43:31.365120,14.34217471,.0002062,86.3950,294.2723,97.0642,263.0789,0,U,43255,999,42886,-.66583E-5,.1E-7,0
IRIDIUM 142,2018-030H,2026-06-08T02:38:19.381056,14.34217708,.0002047,86.3950,294.1456,96.2768,263.8661,0,U,43256,999,42883,.10234E-4,.48E-6,0
IRIDIUM 150,2018-030J,2026-06-07T19:10:47.421408,14.34217855,.0002169,86.3954,294.3917,92.1700,267.9744,0,U,43257,999,42881,.1385E-4,.59E-6,0
IRIDIUM 143,2018-030K,2026-06-08T03:05:43.394208,14.34217952,.0002106,86.3956,294.3458,93.9920,266.1517,0,U,43258,999,42879,.18115E-4,.71E-6,0
IRIDIUM 161,2018-047C,2026-06-07T19:25:26.266656,14.43277970,.0002551,86.4480,92.3917,88.5248,271.6245,0,U,43478,999,42378,.97314E-4,.348E-5,0
IRIDIUM 152,2018-047D,2026-06-07T21:25:02.294688,14.34217790,.0002376,86.3956,92.2182,84.3845,275.7622,0,U,43479,999,42115,.56751E-5,.36E-6,0
IRIDIUM 147,2018-047E,2026-06-07T18:13:14.250144,14.34217654,.0002146,86.3958,92.2789,84.7884,275.3556,0,U,43480,999,42113,.23967E-4,.87E-6,0
IRIDIUM 110,2018-047F,2026-06-08T01:04:14.316096,14.34217592,.0002468,86.3960,92.2512,86.3823,273.7655,0,U,43481,999,42116,-.22749E-5,.13E-6,0
IRIDIUM 162,2018-047G,2026-06-07T19:16:22.109088,14.43276599,.0002354,86.4477,92.2857,83.6081,276.5388,0,U,43482,999,42377,.10469E-3,.372E-5,0
IRIDIUM 160,2018-061A,2026-06-08T03:07:10.468992,14.34217917,.0002282,86.3967,60.5842,86.6315,273.5142,0,U,43569,999,41207,.73805E-5,.4E-6,0
IRIDIUM 166,2018-061B,2026-06-08T03:43:42.461184,14.34217535,.0002008,86.3965,60.5239,84.8333,275.3092,0,U,43570,999,41210,-.45719E-5,.7E-7,0
IRIDIUM 158,2018-061C,2026-06-08T02:58:02.446752,14.34217650,.0002277,86.3966,60.5474,82.6757,277.4697,0,U,43571,999,41206,.42015E-4,.137E-5,0
IRIDIUM 165,2018-061D,2026-06-08T03:34:34.038048,14.34216251,.0002085,86.3969,60.5827,85.7610,274.3824,0,U,43572,999,41209,.7655E-4,.234E-5,0
IRIDIUM 155,2018-061E,2026-06-08T02:39:46.459296,14.34217761,.0002182,86.3964,60.4680,83.2835,276.8609,0,U,43573,999,41205,.23077E-5,.26E-6,0
IRIDIUM 154,2018-061F,2026-06-08T03:52:50.427264,14.34217930,.0002043,86.3969,60.5804,86.4724,273.6706,0,U,43574,999,41211,.20476E-4,.77E-6,0
IRIDIUM 163,2018-061G,2026-06-08T03:25:25.386816,14.34221859,.0002176,86.3968,60.5044,84.6944,275.4500,0,U,43575,999,41208,.72553E-4,.223E-5,0
