IRIDIUM 138             
1 43071U 17083B   26159.17679666  .00000246  00000+0  80679-4 0  9990
2 43071  86.3973 325.4777 0002405  88.8473 271.2998 14.34218066442842
IRIDIUM 116             
1 43072U 17083C   26159.00554539  .00000237  00000+0  77682-4 0  9994
2 43072  86.3957 325.8411 0001852  93.5040 266.6367 14.34217636442853
IRIDIUM 130             
1 43073U 17083D   26159.18313767  .00000244  00000+0  79904-4 0  9997
2 43073  86.3967 326.0415 0001951  88.1759 271.9660 14.34218276442822
IRIDIUM 151             
1 43074U 17083E   26159.15776765  .00000134  00000+0  40903-4 0  9991
2 43074  86.3959 325.8351 0002106  91.6501 268.4936 14.34218048442843
IRIDIUM 134             
1 43075U 17083F   26158.91674950  .00000057  00000+0  13181-4 0  9990
2 43075  86.3961 325.9440 0002093  89.2680 270.8756 14.34218074442771
IRIDIUM 137             
1 43076U 17083G   26158.92943433  .00000021  00000+0  30362-6 0  9990
2 43076  86.3961 326.0310 0001982 102.2057 257.9361 14.34217348442849
IRIDIUM 141             
1 43077U 17083H   26158.92309237 -.00000013  00000+0 -11689-4 0  9991
2 43077  86.3954 325.8651 0002105  90.8157 269.3280 14.34217279442848
IRIDIUM 153             
1 43078U 17083J   26159.08457713  .00000027  00000+0  26653-5 0  9994
2 43078  86.3955 294.2774 0002338  90.6406 269.5057 14.34217634443972
IRIDIUM 131             
1 43079U 17083K   26158.98017521 -.00000024  00000+0 -15682-4 0  9990
2 43079  86.3957 326.0265 0002107  92.0092 268.1345 14.34217441442784
IRIDIUM 144             
1 43249U 18030A   26158.88161319  .00000120  00000+0  35820-4 0  9997
2 43249  86.3951 294.2914 0002003  92.7323 267.4102 14.34217794428804
IRIDIUM 149             
1 43250U 18030B   26158.88795648  .00000058  00000+0  13558-4 0  9991
2 43250  86.3951 294.2562 0002254  92.9338 267.2116 14.34217857428826
IRIDIUM 157             
1 43251U 18030C   26159.11628986  .00000038  00000+0  64324-5 0  9995
2 43251  86.3952 294.2135 0002197  93.7834 266.3613 14.34217640428833
IRIDIUM 140             
1 43252U 18030D   26158.92601160  .00000045  00000+0  91071-5 0  9996
2 43252  86.3953 294.3057 0002148  92.1839 267.9603 14.34217806428866
IRIDIUM 145             
1 43253U 18030E   26158.91332542  .00000082  00000+0  22298-4 0  9996
2 43253  86.3951 294.2832 0001856  96.4966 263.6441 14.34217720428798
IRIDIUM 146             
1 43254U 18030F   26158.89429845  .00000018  00000+0 -74570-6 0  9999
2 43254  86.3950 294.3037 0001976  95.2646 264.8775 14.34217567428805
IRIDIUM 148             
1 43255U 18030G   26159.07189080  .00000001  00000+0 -66583-5 0  9991
2 43255  86.3950 294.2723 0002062  97.0642 263.0789 14.34217471428866
IRIDIUM 142             
1 43256U 18030H   26159.10994654  .00000048  00000+0  10234-4 0  9998
2 43256  86.3950 294.1456 0002047  96.2768 263.8661 14.34217708428839
IRIDIUM 150             
1 43257U 18030J   26158.79915997  .00000059  00000+0  13850-4 0  9995
2 43257  86.3954 294.3917 0002169  92.1700 267.9744 14.34217855428812
IRIDIUM 143             
1 43258U 18030K   26159.12897447  .00000071  00000+0  18115-4 0  9996
2 43258  86.3956 294.3458 0002106  93.9920 266.1517 14.34217952428793
IRIDIUM 161             
1 43478U 18047C   26158.80933179  .00000348  00000+0  97314-4 0  9990
2 43478  86.4480  92.3917 0002551  88.5248 271.6245 14.43277970423782
IRIDIUM 152             
1 43479U 18047D   26158.89238767  .00000036  00000+0  56751-5 0  9996
2 43479  86.3956  92.2182 0002376  84.3845 275.7622 14.34217790421152
IRIDIUM 147             
1 43480U 18047E   26158.75919271  .00000087  00000+0  23967-4 0  9997
2 43480  86.3958  92.2789 0002146  84.7884 275.3556 14.34217654421130
IRIDIUM 110             
1 43481U 18047F   26159.04461014  .00000013  00000+0 -22749-5 0  9996
2 43481  86.3960  92.2512 0002468  86.3823 273.7655 14.34217592421162
IRIDIUM 162             
1 43482U 18047G   26158.80303367  .00000372  00000+0  10469-3 0  9997
2 43482  86.4477  92.2857 0002354  83.6081 276.5388 14.43276599423774
IRIDIUM 160             
1 43569U 18061A   26159.12998228  .00000040  00000+0  73805-5 0  9998
2 43569  86.3967  60.5842 0002282  86.6315 273.5142 14.34217917412073
IRIDIUM 166             
1 43570U 18061B   26159.15535256  .00000007  00000+0 -45719-5 0  9998
2 43570  86.3965  60.5239 0002008  84.8333 275.3092 14.34217535412103
IRIDIUM 158             
1 43571U 18061C   26159.12363943  .00000137  00000+0  42015-4 0  9996
2 43571  86.3966  60.5474 0002277  82.6757 277.4697 14.34217650412067
IRIDIUM 165             
1 43572U 18061D   26159.14900507  .00000234  00000+0  76550-4 0  9991
2 43572  86.3969  60.5827 0002085  85.7610 274.3824 14.34216251412099
IRIDIUM 155             
1 43573U 18061E   26159.11095439  .00000026  00000+0  23077-5 0  9994
2 43573  86.3964  60.4680 0002182  83.2835 276.8609 14.34217761412052
IRIDIUM 154             
1 43574U 18061F   26159.16169476  .00000077  00000+0  20476-4 0  9998
2 43574  86.3969  60.5804 0002043  86.4724 273.6706 14.34217930412113
IRIDIUM 163             
1 43575U 18061G   26159.14265494  .00000223  00000+0  72553-4 0  9990
2 43575  86.3968  60.5044 0002176  84.6944 275.4500 14.34221859412083
